{
    "links": {
        "self": "http://www.neowsapp.com/rest/v1/neo/3455474?api_key=iIulBulltgU6a56xZRHN4H3l9WmuAYTsLGpBGhQ2"
    },
    "id": "3455474",
    "neo_reference_id": "3455474",
    "name": "(2009 FT32)",
    "designation": "2009 FT32",
    "nasa_jpl_url": "http://ssd.jpl.nasa.gov/sbdb.cgi?sstr=3455474",
    "absolute_magnitude_h": 23.8,
    "estimated_diameter": {
        "kilometers": {
            "estimated_diameter_min": 0.046190746,
            "estimated_diameter_max": 0.1032856481
        },
        "meters": {
            "estimated_diameter_min": 46.1907460282,
            "estimated_diameter_max": 103.2856480504
        },
        "miles": {
            "estimated_diameter_min": 0.0287015901,
            "estimated_diameter_max": 0.0641787064
        },
        "feet": {
            "estimated_diameter_min": 151.544447199,
            "estimated_diameter_max": 338.8636855496
        }
    },
    "is_potentially_hazardous_asteroid": false,
    "close_approach_data": [
        {
            "close_approach_date": "2009-04-16",
            "close_approach_date_full": "2009-Apr-16 08:52",
            "epoch_date_close_approach": 1239871920000,
            "relative_velocity": {
                "kilometers_per_second": "12.365504276",
                "kilometers_per_hour": "44515.8153937177",
                "miles_per_hour": "27660.3965150575"
            },
            "miss_distance": {
                "astronomical": "0.0919786977",
                "lunar": "35.7797134053",
                "kilometers": "13759817.261293899",
                "miles": "8549953.9795338462"
            },
            "orbiting_body": "Earth"
        }
    ],
    "orbital_data": {
        "orbit_id": "8",
        "orbit_determination_date": "2017-04-06 09:00:49",
        "first_observation_date": "2009-03-22",
        "last_observation_date": "2009-04-15",
        "data_arc_in_days": 24,
        "observations_used": 22,
        "orbit_uncertainty": "8",
        "minimum_orbit_intersection": ".0861892",
        "jupiter_tisserand_invariant": "3.066",
        "epoch_osculation": "2454919.5",
        "eccentricity": ".6288563792386669",
        "semi_major_axis": "2.640225070623367",
        "inclination": "8.612877704241228",
        "ascending_node_longitude": "180.3112687008523",
        "orbital_period": "1566.967008740379",
        "perihelion_distance": ".9799026923360028",
        "perihelion_argument": "62.74015505839525",
        "aphelion_distance": "4.300547448910731",
        "perihelion_time": "2454966.013868290773",
        "mean_anomaly": "349.3137554962699",
        "mean_motion": ".2297431905023893",
        "equinox": "J2000",
        "orbit_class": {
            "orbit_class_type": "APO",
            "orbit_class_description": "Near-Earth asteroid orbits which cross the Earth’s orbit similar to that of 1862 Apollo",
            "orbit_class_range": "a (semi-major axis) > 1.0 AU; q (perihelion) < 1.017 AU"
        }
    },
    "is_sentry_object": false
}